STARLINK-1063           
1 44768U 19074BH  26068.75225384 -.00812325  00000+0 -29858-1 0  9993
2 44768  53.1603 219.1040 0001219  60.1573 299.9548 15.29959368348324
FLOCK 4G-25             
1 62646U 25009AP  26068.74572546  .00010373  00000+0  38902-3 0  9990
2 62646  97.4049 151.4141 0000828 316.3151  43.8023 15.27424196 63734
